ONEWEB-0198             
1 48216U 21031G   26189.76803954 -.00000114  00000+0 -34098-3 0  9990
2 48216  87.8958 285.4099 0002460 104.2049 255.9354 13.14502765251327
ONEWEB-0189             
1 48217U 21031H   26189.78058561  .00000141  00000+0  34498-3 0  9991
2 48217  87.8967 285.3965 0002335 105.5917 254.5471 13.14502525251068
ONEWEB-0196             
1 48218U 21031J   26189.75838243 -.00000181  00000+0 -52340-3 0  9994
2 48218  87.8966 285.4095 0002158 100.1932 259.9441 13.14502275251062
ONEWEB-0183             
1 48219U 21031K   26189.80912645  .00000072  00000+0  15992-3 0  9999
2 48219  87.8967 285.3971 0001985  91.9902 268.1455 13.14501519251165
ONEWEB-0185             
1 48220U 21031L   26189.75916444 -.00000234  00000+0 -66450-3 0  9993
2 48220  87.8975 285.4018 0002280  91.3191 268.8200 13.14503602251083
ONEWEB-0187             
1 48221U 21031M   26189.73921200 -.00000066  00000+0 -21204-3 0  9999
2 48221  87.8973 285.4194 0002204  99.2589 260.8790 13.14502540251098
ONEWEB-0192             
1 48222U 21031N   26189.78534664  .00000181  00000+0  45434-3 0  9996
2 48222  87.8970 285.4006 0002087 101.7125 258.4240 13.14503042251015
ONEWEB-0219             
1 48223U 21031P   26189.76471651 -.00000162  00000+0 -47062-3 0  9991
2 48223  87.8977 285.3978 0002256  97.1883 262.9503 13.14503256251218
ONEWEB-0202             
1 48224U 21031Q   26189.82181933 -.00000165  00000+0 -47876-3 0  9996
2 48224  87.8977 285.3984 0002577 112.6550 247.4852 13.14502159251201
ONEWEB-0204             
1 48225U 21031R   26189.77977451  .00000112  00000+0  26633-3 0  9997
2 48225  87.8969 285.4021 0001866  90.2844 269.8500 13.14499224251096
ONEWEB-0205             
1 48226U 21031S   26189.75520802 -.00000201  00000+0 -57752-3 0  9997
2 48226  87.8981 285.4004 0002327  98.8196 261.3197 13.14502944251104
ONEWEB-0206             
1 48227U 21031T   26189.80436367  .00000160  00000+0  39677-3 0  9994
2 48227  87.8976 285.3915 0001876 102.9903 257.1437 13.14501531251066
ONEWEB-0182             
1 48228U 21031U   26189.79960905  .00000210  00000+0  53095-3 0  9999
2 48228  87.8971 285.3998 0001938  93.3119 266.8233 13.14503591251276
ONEWEB-0186             
1 48229U 21031V   26189.81071265  .00000059  00000+0  12350-3 0  9995
2 48229  87.8985 285.3895 0002122 101.0424 259.0945 13.14502572251227
ONEWEB-0181             
1 48230U 21031W   26189.78849699  .00000102  00000+0  24069-3 0  9996
2 48230  87.8959 285.4198 0002262 101.2599 258.8785 13.14505183251070
ONEWEB-0188             
1 48231U 21031X   26189.82656403 -.00000175  00000+0 -50729-3 0  9995
2 48231  87.8962 285.4121 0002049  98.1336 262.0026 13.14501937250984
ONEWEB-0220             
1 48232U 21031Y   26189.79008745  .00000035  00000+0  58675-4 0  9994
2 48232  87.8967 285.3969 0002324 102.0330 258.1061 13.14504755251240
ONEWEB-0165             
1 48233U 21031Z   26189.81864714 -.00000124  00000+0 -36804-3 0  9994
2 48233  87.8972 285.4014 0002383 104.5690 255.5704 13.14502972251200
ONEWEB-0199             
1 48234U 21031AA  26189.80278444  .00000193  00000+0  48487-3 0  9997
2 48234  87.8982 285.3907 0001857 103.6458 256.4879 13.14501554251106
ONEWEB-0203             
1 48235U 21031AB  26189.79326011  .00000309  00000+0  79836-3 0  9991
2 48235  87.8959 285.3989 0001883 128.9082 231.2216 13.14500928251114
ONEWEB-0197             
1 48236U 21031AC  26189.76775005 -.00000153  00000+0 -44731-3 0  9995
2 48236  87.8963 285.3868 0002028  93.7530 266.3832 13.14502180251020
ONEWEB-0194             
1 48237U 21031AD  26189.82339648 -.00000210  00000+0 -60127-3 0  9993
2 48237  87.8975 285.3977 0001871 105.5349 254.5988 13.14503298251202
ONEWEB-0193             
1 48238U 21031AE  26189.76313967  .00000742  00000+0  19660-2 0  9996
2 48238  87.8971 285.3994 0001999 104.8421 255.2931 13.14497610251141
ONEWEB-0191             
1 48239U 21031AF  26189.54589271  .00000149  00000+0  36850-3 0  9998
2 48239  87.8983 285.4438 0002087  96.3499 263.7869 13.14506527250970
ONEWEB-0195             
1 48240U 21031AG  26189.82736263 -.00000192  00000+0 -55117-3 0  9993
2 48240  87.8984 285.3867 0002428 104.2320 255.9080 13.14503192250994
ONEWEB-0201             
1 48241U 21031AH  26189.81560084 -.00000043  00000+0 -14971-3 0  9997
2 48241  87.8973 285.4047 0002067  91.4927 268.6439 13.14502235251226
ONEWEB-0207             
1 48242U 21031AJ  26189.79563402  .00000232  00000+0  59090-3 0  9991
2 48242  87.8999 285.3905 0002288  91.4717 268.6675 13.14504803251134
ONEWEB-0208             
1 48243U 21031AK  26189.77740721  .00000103  00000+0  24396-3 0  9999
2 48243  87.8970 285.4042 0002343 106.1126 254.0262 13.14502156251148
ONEWEB-0200             
1 48244U 21031AL  26189.81705695 -.00000051  00000+0 -17168-3 0  9999
2 48244  87.8985 285.3844 0002121 100.4717 259.6652 13.14501971251071
ONEWEB-0217             
1 48245U 21031AM  26189.75679358 -.00000198  00000+0 -56761-3 0  9993
2 48245  87.8977 285.4011 0002340 105.4057 254.7331 13.14502766251012
