OBJECT_NAME,OBJECT_ID,EPOCH,MEAN_MOTION,ECCENTRICITY,INCLINATION,RA_OF_ASC_NODE,ARG_OF_PERICENTER,MEAN_ANOMALY,EPHEMERIS_TYPE,CLASSIFICATION_TYPE,NORAD_CAT_ID,ELEMENT_SET_NO,REV_AT_EPOCH,BSTAR,MEAN_MOTION_DOT,MEAN_MOTION_DDOT
ONEWEB-0198,2021-031G,2026-07-08T18:25:58.616256,13.14502765,.00024608,87.8958,285.4099,104.2049,255.9354,0,U,48216,999,25132,-.34098215E-3,-.114E-5,0
ONEWEB-0189,2021-031H,2026-07-08T18:44:02.596704,13.14502525,.00023355,87.8967,285.3965,105.5917,254.5471,0,U,48217,999,25106,.34497847E-3,.141E-5,0
ONEWEB-0196,2021-031J,2026-07-08T18:12:04.241952,13.14502275,.00021581,87.8966,285.4095,100.1932,259.9441,0,U,48218,999,25106,-.52339693E-3,-.181E-5,0
ONEWEB-0183,2021-031K,2026-07-08T19:25:08.525280,13.14501519,.00019854,87.8967,285.3971,91.9902,268.1455,0,U,48219,999,25116,.15992348E-3,.72E-6,0
ONEWEB-0185,2021-031L,2026-07-08T18:13:11.807616,13.14503602,.00022804,87.8975,285.4018,91.3191,268.8200,0,U,48220,999,25108,-.66449794E-3,-.234E-5,0
ONEWEB-0187,2021-031M,2026-07-08T17:44:27.916800,13.14502540,.00022046,87.8973,285.4194,99.2589,260.8790,0,U,48221,999,25109,-.21204403E-3,-.66E-6,0
ONEWEB-0192,2021-031N,2026-07-08T18:50:53.949696,13.14503042,.00020878,87.8970,285.4006,101.7125,258.4240,0,U,48222,999,25101,.45434365E-3,.181E-5,0
ONEWEB-0219,2021-031P,2026-07-08T18:21:11.506464,13.14503256,.00022569,87.8977,285.3978,97.1883,262.9503,0,U,48223,999,25121,-.47062386E-3,-.162E-5,0
ONEWEB-0202,2021-031Q,2026-07-08T19:43:25.190112,13.14502159,.00025771,87.8977,285.3984,112.6550,247.4852,0,U,48224,999,25120,-.47875585E-3,-.165E-5,0
ONEWEB-0204,2021-031R,2026-07-08T18:42:52.517664,13.14499224,.00018663,87.8969,285.4021,90.2844,269.8500,0,U,48225,999,25109,.26632967E-3,.112E-5,0
ONEWEB-0205,2021-031S,2026-07-08T18:07:29.972928,13.14502944,.00023273,87.8981,285.4004,98.8196,261.3197,0,U,48226,999,25110,-.57751793E-3,-.201E-5,0
ONEWEB-0206,2021-031T,2026-07-08T19:18:17.021088,13.14501531,.00018761,87.8976,285.3915,102.9903,257.1437,0,U,48227,999,25106,.39676962E-3,.16E-5,0
ONEWEB-0182,2021-031U,2026-07-08T19:11:26.221920,13.14503591,.00019385,87.8971,285.3998,93.3119,266.8233,0,U,48228,999,25127,.53094921E-3,.21E-5,0
ONEWEB-0186,2021-031V,2026-07-08T19:27:25.572960,13.14502572,.00021222,87.8985,285.3895,101.0424,259.0945,0,U,48229,999,25122,.12350142E-3,.59E-6,0
ONEWEB-0181,2021-031W,2026-07-08T18:55:26.139936,13.14505183,.00022628,87.8959,285.4198,101.2599,258.8785,0,U,48230,999,25107,.24068535E-3,.102E-5,0
ONEWEB-0188,2021-031X,2026-07-08T19:50:15.132192,13.14501937,.00020495,87.8962,285.4121,98.1336,262.0026,0,U,48231,999,25098,-.50729434E-3,-.175E-5,0
ONEWEB-0220,2021-031Y,2026-07-08T18:57:43.555680,13.14504755,.00023246,87.8967,285.3969,102.0330,258.1061,0,U,48232,999,25124,.5867476E-4,.35E-6,0
ONEWEB-0165,2021-031Z,2026-07-08T19:38:51.112896,13.14502972,.00023835,87.8972,285.4014,104.5690,255.5704,0,U,48233,999,25120,-.36803646E-3,-.124E-5,0
ONEWEB-0199,2021-031AA,2026-07-08T19:16:00.575616,13.14501554,.00018576,87.8982,285.3907,103.6458,256.4879,0,U,48234,999,25110,.48486936E-3,.193E-5,0
ONEWEB-0203,2021-031AB,2026-07-08T19:02:17.673504,13.14500928,.00018838,87.8959,285.3989,128.9082,231.2216,0,U,48235,999,25111,.79835847E-3,.309E-5,0
ONEWEB-0197,2021-031AC,2026-07-08T18:25:33.604320,13.14502180,.0002028,87.8963,285.3868,93.7530,266.3832,0,U,48236,999,25102,-.44730869E-3,-.153E-5,0
ONEWEB-0194,2021-031AD,2026-07-08T19:45:41.455872,13.14503298,.00018713,87.8975,285.3977,105.5349,254.5988,0,U,48237,999,25120,-.60126588E-3,-.21E-5,0
ONEWEB-0193,2021-031AE,2026-07-08T18:18:55.267488,13.14497610,.00019996,87.8971,285.3994,104.8421,255.2931,0,U,48238,999,25114,.19659567E-2,.742E-5,0
ONEWEB-0191,2021-031AF,2026-07-08T13:06:05.130144,13.14506527,.00020872,87.8983,285.4438,96.3499,263.7869,0,U,48239,999,25097,.36850013E-3,.149E-5,0
ONEWEB-0195,2021-031AG,2026-07-08T19:51:24.131232,13.14503192,.0002428,87.8984,285.3867,104.2320,255.9080,0,U,48240,999,25099,-.55116508E-3,-.192E-5,0
ONEWEB-0201,2021-031AH,2026-07-08T19:34:27.912576,13.14502235,.00020678,87.8973,285.4047,91.4927,268.6439,0,U,48241,999,25122,-.14971498E-3,-.43E-6,0
ONEWEB-0207,2021-031AJ,2026-07-08T19:05:42.779328,13.14504803,.0002288,87.8999,285.3905,91.4717,268.6675,0,U,48242,999,25113,.59089653E-3,.232E-5,0
ONEWEB-0208,2021-031AK,2026-07-08T18:39:27.982944,13.14502156,.00023437,87.8970,285.4042,106.1126,254.0262,0,U,48243,999,25114,.24395544E-3,.103E-5,0
ONEWEB-0200,2021-031AL,2026-07-08T19:36:33.720480,13.14501971,.00021218,87.8985,285.3844,100.4717,259.6652,0,U,48244,999,25107,-.17167773E-3,-.51E-6,0
ONEWEB-0217,2021-031AM,2026-07-08T18:09:46.965312,13.14502766,.00023402,87.8977,285.4011,105.4057,254.7331,0,U,48245,999,25101,-.56760755E-3,-.198E-5,0
